NAVSTAR 77 (USA 289)    
1 43873U 18109A   23298.52191632  .00000092  00000+0  00000+0 0  9996
2 43873  55.2111 130.3422 0026806 189.8094 356.2242  2.00570334 35701
